O3B MPOWER F1           
1 54755U 22174A   24118.73647197 -.00000014  00000+0  00000+0 0  9996
2 54755   0.0652   2.2765 0006717  39.8444 259.0646  5.00114644 26315
